[
    {
        "Altitude(m)": 604234.619267785,
        "Argument of Periapsis(deg)": 0.0,
        "Eccentricity": 0.0,
        "Inclination(deg)": 60.0,
        "Latitude(deg)": 14.117293007768108,
        "Longitude(deg)": 146.72734978116503,
        "Mean Anomaly(deg)": 163.6364,
        "RAAN(deg)": 75.0,
        "Satellite Name": "Test1 340",
        "Satellite Number": 340,
        "Semi-Major Axis(m)": 6980739.136638005,
        "Time(s)": 0
    },
    {
        "Altitude(m)": 604223.4474091888,
        "Argument of Periapsis(deg)": 0.00010418945913296404,
        "Eccentricity": 0.0,
        "Inclination(deg)": 60.0,
        "Latitude(deg)": 13.582428926584413,
        "Longitude(deg)": 147.0142581415726,
        "Mean Anomaly(deg)": 164.25650614546186,
        "RAAN(deg)": 74.99957995086027,
        "Satellite Name": "Test1 340",
        "Satellite Number": 340,
        "Semi-Major Axis(m)": 6980739.136638005,
        "Time(s)": 10
    }
]